NORAD_CAT_ID,OBJECT_NAME,OBJECT_TYPE,EPOCH,MEAN_MOTION,ECCENTRICITY,INCLINATION,RA_OF_ASC_NODE,ARG_OF_PERICENTER,MEAN_ANOMALY,BSTAR,MEAN_MOTION_DOT,MEAN_MOTION_DDOT,TLE_LINE0,TLE_LINE1,TLE_LINE2,SEMIMAJOR_AXIS,PERIOD,APOGEE,PERIGEE,DECAYED
54006.0,STARLINK-5096,PAYLOAD,2023-04-10 23:21:19,15.08846209,0.000127,53.2152,308.9022,89.8883,270.2255,0.00022866,3.354e-05,0.0,0 STARLINK-5096,1 54006U 22125AU  23100.97314380  .00003354  00000-0  22866-3 0  9990,2 54006  53.2152 308.9022 0001270  89.8883 270.2255 15.08846209 28874,6917.861,95.437,540.605,538.848,0.0
54006.0,STARLINK-5096,PAYLOAD,2023-04-11 23:12:07,15.08840082,0.0001461,53.2147,304.442,86.0865,274.0294,9.1504e-05,1.169e-05,0.0,0 STARLINK-5096,1 54006U 22125AU  23101.96674865  .00001169  00000-0  91504-4 0  9995,2 54006  53.2147 304.4420 0001461  86.0865 274.0294 15.08840082 29084,6917.88,95.438,540.756,538.734,0.0
54006.0,STARLINK-5096,PAYLOAD,2023-04-12 13:30:34,15.08851954,0.0001667,53.2143,301.766,83.5053,276.6129,-0.0001043,-1.948e-05,0.0,0 STARLINK-5096,1 54006U 22125AU  23102.56290436 -.00001948  00000-0 -10430-3 0  9995,2 54006  53.2143 301.7660 0001667  83.5053 276.6129 15.08851954 29114,6917.844,95.437,540.862,538.556,0.0
54006.0,STARLINK-5096,PAYLOAD,2023-04-12 23:02:53,15.08847396,0.0001217,53.2142,299.9827,88.6143,271.4988,0.00021637,3.158e-05,0.0,0 STARLINK-5096,1 54006U 22125AU  23102.96034536  .00003158  00000-0  21637-3 0  9990,2 54006  53.2142 299.9827 0001217  88.6143 271.4988 15.08847396 29237,6917.858,95.437,540.565,538.881,0.0
54006.0,STARLINK-5096,PAYLOAD,2023-04-13 19:42:55,15.08834159,0.000127,53.2155,296.1194,95.703,264.4107,0.00039129,5.944e-05,0.0,0 STARLINK-5096,1 54006U 22125AU  23103.82147148  .00005944  00000-0  39129-3 0  9990,2 54006  53.2155 296.1194 0001270  95.7030 264.4107 15.08834159 29362,6917.898,95.438,540.642,538.885,0.0
54006.0,STARLINK-5096,PAYLOAD,2023-04-14 13:12:09,15.08836758,0.0001198,53.2168,292.8466,91.4655,268.6475,-2.3306e-05,-6.59e-06,0.0,0 STARLINK-5096,1 54006U 22125AU  23104.55011098 -.00000659  00000-0 -23306-4 0  9996,2 54006  53.2168 292.8466 0001198  91.4655 268.6475 15.08836758 29413,6917.89,95.438,540.584,538.927,0.0
54006.0,STARLINK-5096,PAYLOAD,2023-04-14 22:44:27,15.08848062,0.0001253,53.216,291.0616,89.6288,270.4848,0.00021107,3.074e-05,0.0,0 STARLINK-5096,1 54006U 22125AU  23104.94754582  .00003074  00000-0  21107-3 0  9999,2 54006  53.2160 291.0616 0001253  89.6288 270.4848 15.08848062 29535,6917.856,95.437,540.588,538.854,0.0
54006.0,STARLINK-5096,PAYLOAD,2023-04-15 13:02:56,15.08840693,0.000103,53.2147,288.384,84.3512,275.7597,-4.8891e-05,-1.066e-05,0.0,0 STARLINK-5096,1 54006U 22125AU  23105.54370892 -.00001066  00000-0 -48891-4 0  9995,2 54006  53.2147 288.3840 0001030  84.3512 275.7597 15.08840693 29624,6917.878,95.438,540.456,539.031,0.0
54006.0,STARLINK-5096,PAYLOAD,2023-04-15 20:59:51,15.08849451,0.000114,53.2146,286.8975,82.5449,277.5672,9.7656e-05,1.267e-05,0.0,0 STARLINK-5096,1 54006U 22125AU  23105.87490399  .00001267  00000-0  97656-4 0  9990,2 54006  53.2146 286.8975 0001140  82.5449 277.5672 15.08849451 29610,6917.852,95.437,540.505,538.928,0.0
54006.0,STARLINK-5096,PAYLOAD,2023-04-15 22:35:14,15.08853376,0.0001096,53.2152,286.5998,89.5602,270.5516,0.00017733,2.537e-05,0.0,0 STARLINK-5096,1 54006U 22125AU  23105.94114168  .00002537  00000-0  17733-3 0  9993,2 54006  53.2152 286.5998 0001096  89.5602 270.5516 15.08853376 29685,6917.84,95.437,540.463,538.946,0.0
54006.0,STARLINK-5096,PAYLOAD,2023-04-16 12:53:43,15.08835726,0.0001559,53.2167,283.9239,80.1365,279.9803,-6.7261e-05,-1.358e-05,0.0,0 STARLINK-5096,1 54006U 22125AU  23106.53731210 -.00001358  00000-0 -67261-4 0  9996,2 54006  53.2167 283.9239 0001559  80.1365 279.9803 15.08835726 29778,6917.893,95.438,540.837,538.68,0.0
54006.0,STARLINK-5096,PAYLOAD,2023-04-16 20:50:39,15.08838811,0.000119,53.2161,282.4368,77.4329,282.6796,2.5996e-05,1.26e-06,0.0,0 STARLINK-5096,1 54006U 22125AU  23106.86851240  .00000126  00000-0  25996-4 0  9997,2 54006  53.2161 282.4368 0001190  77.4329 282.6796 15.08838811 29768,6917.884,95.438,540.572,538.926,0.0
54006.0,STARLINK-5096,PAYLOAD,2023-04-17 12:44:30,15.08841983,0.0001224,53.2162,279.4641,74.0379,286.0747,0.0002087,3.035e-05,0.0,0 STARLINK-5096,1 54006U 22125AU  23107.53091349  .00003035  00000-0  20870-3 0  9995,2 54006  53.2162 279.4641 0001224  74.0379 286.0747 15.08841983 29864,6917.874,95.437,540.586,538.893,0.0
54006.0,STARLINK-5096,PAYLOAD,2023-04-17 19:06:03,15.08851458,0.0001214,53.2151,278.2741,67.6804,292.4317,0.0007029,0.0001092,0.0,0 STARLINK-5096,1 54006U 22125AU  23107.79587230  .00010920  00000-0  70290-3 0  9994,2 54006  53.2151 278.2741 0001214  67.6804 292.4317 15.08851458 29963,6917.845,95.437,540.55,538.871,0.0
54006.0,STARLINK-5096,PAYLOAD,2023-04-18 04:38:22,15.08845173,0.0001279,53.2148,276.4908,64.0285,296.0839,0.00031079,4.662e-05,0.0,0 STARLINK-5096,1 54006U 22125AU  23108.19331282  .00004662  00000-0  31079-3 0  9991,2 54006  53.2148 276.4908 0001279  64.0285 296.0839 15.08845173 30024,6917.865,95.437,540.614,538.845,0.0
54006.0,STARLINK-5096,PAYLOAD,2023-04-18 10:59:54,15.08840227,0.0001339,53.2157,275.303,72.1671,287.9467,0.00019662,2.843e-05,0.0,0 STARLINK-5096,1 54006U 22125AU  23108.45827500  .00002843  00000-0  19662-3 0  9996,2 54006  53.2157 275.3030 0001339  72.1671 287.9467 15.08840227 30003,6917.88,95.438,540.671,538.818,0.0
54006.0,STARLINK-5096,PAYLOAD,2023-04-18 17:21:27,15.08843036,0.0001392,53.2158,274.1139,68.7257,291.3883,0.00023584,3.468e-05,0.0,0 STARLINK-5096,1 54006U 22125AU  23108.72323474  .00003468  00000-0  23584-3 0  9999,2 54006  53.2158 274.1139 0001392  68.7257 291.3883 15.08843036 30047,6917.871,95.437,540.699,538.773,0.0
54006.0,STARLINK-5096,PAYLOAD,2023-04-19 10:50:42,15.08842174,0.0001093,53.2162,270.8411,60.6452,299.4649,0.00018721,2.693e-05,0.0,0 STARLINK-5096,1 54006U 22125AU  23109.45187539  .00002693  00000-0  18721-3 0  9996,2 54006  53.2162 270.8411 0001093  60.6452 299.4649 15.08842174 30157,6917.874,95.437,540.495,538.983,0.0
54006.0,STARLINK-5096,PAYLOAD,2023-04-19 17:12:14,15.08850114,0.0001043,53.2155,269.6511,72.596,287.5146,0.00050578,7.773e-05,0.0,0 STARLINK-5096,1 54006U 22125AU  23109.71683291  .00007773  00000-0  50578-3 0  9991,2 54006  53.2155 269.6511 0001043  72.5960 287.5146 15.08850114 30194,6917.849,95.437,540.436,538.993,0.0
54006.0,STARLINK-5096,PAYLOAD,2023-04-19 21:58:23,15.08863948,0.0001007,53.2157,268.7579,68.415,291.6949,0.00094018,0.00014716,0.0,0 STARLINK-5096,1 54006U 22125AU  23109.91554889  .00014716  00000-0  94018-3 0  9995,2 54006  53.2157 268.7579 0001007  68.4150 291.6949 15.08863948 30281,6917.807,95.436,540.369,538.976,0.0
54006.0,STARLINK-5096,PAYLOAD,2023-04-20 10:41:28,15.0884085,0.0001128,53.2157,266.3786,73.85,286.2617,0.00035281,5.332e-05,0.0,0 STARLINK-5096,1 54006U 22125AU  23110.44547378  .00005332  00000-0  35281-3 0  9991,2 54006  53.2157 266.3786 0001128  73.8500 286.2617 15.08840850 30300,6917.878,95.438,540.523,538.962,0.0
54006.0,STARLINK-5096,PAYLOAD,2023-04-20 17:03:01,15.08848537,9.63e-05,53.2158,265.1894,80.0499,280.0602,0.00075339,0.00011725,0.0,0 STARLINK-5096,1 54006U 22125AU  23110.71043292  .00011725  00000-0  75339-3 0  9998,2 54006  53.2158 265.1894 0000963  80.0499 280.0602 15.08848537 30408,6917.854,95.437,540.385,539.053,0.0
54006.0,STARLINK-5096,PAYLOAD,2023-04-20 21:49:10,15.08855426,0.0001043,53.2162,264.2968,82.3525,277.7585,0.0013875,0.00021872,0.0,0 STARLINK-5096,1 54006U 22125AU  23110.90915188  .00021872  00000-0  13875-2 0  9991,2 54006  53.2162 264.2968 0001043  82.3525 277.7585 15.08855426 30374,6917.833,95.437,540.42,538.977,0.0
54006.0,STARLINK-5096,PAYLOAD,2023-04-21 16:53:48,15.08853514,0.0002184,53.2152,260.7268,90.5035,269.6207,0.0011878,0.00018674,0.0,0 STARLINK-5096,1 54006U 22125AU  23111.70403520  .00018674  00000-0  11878-2 0  9999,2 54006  53.2152 260.7268 0002184  90.5035 269.6207 15.08853514 30491,6917.839,95.437,541.215,538.193,0.0
54006.0,STARLINK-5096,PAYLOAD,2023-04-22 02:26:07,15.08852998,8.09e-05,53.2156,258.9456,92.2688,267.8396,0.00091747,0.00014349,0.0,0 STARLINK-5096,1 54006U 22125AU  23112.10147317  .00014349  00000-0  91747-3 0  9992,2 54006  53.2156 258.9456 0000809  92.2688 267.8396 15.08852998 30559,6917.841,95.437,540.265,539.146,0.0
54006.0,STARLINK-5096,PAYLOAD,2023-04-22 16:44:35,15.08854335,0.0001603,53.2168,256.2682,95.775,264.3425,0.0006336,9.814e-05,0.0,0 STARLINK-5096,1 54006U 22125AU  23112.69763277  .00009814  00000-0  63360-3 0  9996,2 54006  53.2168 256.2682 0001603  95.7750 264.3425 15.08854335 30704,6917.837,95.437,540.811,538.593,0.0
54006.0,STARLINK-5096,PAYLOAD,2023-04-22 19:55:21,15.08856953,0.0001,53.2161,255.6738,81.8454,278.2651,0.00078518,0.00012236,0.0,0 STARLINK-5096,1 54006U 22125AU  23112.83011169  .00012236  00000-0  78518-3 0  9991,2 54006  53.2161 255.6738 0001000  81.8454 278.2651 15.08856953 30668,6917.829,95.436,540.385,539.002,0.0
54006.0,STARLINK-5096,PAYLOAD,2023-04-23 10:13:50,15.08833937,9.8e-05,53.2155,252.9974,81.8659,278.2444,0.00092228,0.00014418,0.0,0 STARLINK-5096,1 54006U 22125AU  23113.42628143  .00014418  00000-0  92228-3 0  9991,2 54006  53.2155 252.9974 0000980  81.8659 278.2444 15.08833937 30753,6917.899,95.438,540.442,539.086,0.0
54006.0,STARLINK-5096,PAYLOAD,2023-04-23 21:21:32,15.08851648,0.0001142,53.2146,250.9158,78.3225,281.7895,0.0015721,0.00024828,0.0,0 STARLINK-5096,1 54006U 22125AU  23113.88996120  .00024828  00000-0  15721-2 0  9992,2 54006  53.2146 250.9158 0001142  78.3225 281.7895 15.08851648 30822,6917.845,95.437,540.5,538.92,0.0
54006.0,STARLINK-5096,PAYLOAD,2023-04-24 08:29:13,15.08895718,3.26e-05,53.217,248.836,126.6573,233.4449,0.0025735,0.0004097,0.0,0 STARLINK-5096,1 54006U 22125AU  23114.35363177  .00040970  00000-0  25735-2 0  9997,2 54006  53.2170 248.8360 0000326 126.6573 233.4449 15.08895718 30955,6917.71,95.434,539.801,539.35,0.0
